{"spkid": "54376834", "covariance": {"data": [["2.280396844011604E-17", "-4.592179983882157E-17", "3.855204767452499E-15", "1.821850433541782E-14", "-1.265863923260379E-14", "-1.623909981334652E-15"], ["-4.592179983882157E-17", "9.566153630208664E-17", "-1.055680484458583E-14", "-3.743721535182691E-14", "2.281296726923238E-14", "3.467380727035192E-15"], ["3.855204767452499E-15", "-1.055680484458583E-14", "3.734183993403751E-11", "-8.387468151425318E-12", "5.02439236657331E-11", "-7.626321153788962E-13"], ["1.821850433541782E-14", "-3.743721535182691E-14", "-8.387468151425318E-12", "1.718272582659291E-10", "-1.786350426199277E-10", "1.441634291701771E-11"], ["-1.265863923260379E-14", "2.281296726923238E-14", "5.02439236657331E-11", "-1.786350426199277E-10", "2.328256742943885E-10", "-1.532691606007146E-11"], ["-1.623909981334652E-15", "3.467380727035192E-15", "-7.626321153788962E-13", "1.441634291701771E-11", "-1.532691606007146E-11", "4.772436711073207E-12"]], "elements": [{"title": "eccentricity", "value": ".5098712056635751", "units": null, "sigma": 4.77535008560797e-09, "name": "e", "label": "e"}, {"label": "q", "name": "q", "sigma": 9.78067156702885e-09, "value": "1.025561317926826", "title": "perihelion distance", "units": "au"}, {"label": "tp", "units": "TDB", "title": "time of perihelion passage", "value": "2460178.329157497566", "name": "tp", "sigma": 6.11079699663125e-06}, {"label": "node", "name": "om", "sigma": 1.31082896773732e-05, "units": "deg", "title": "longitude of the ascending node", "value": "309.2138439623829"}, {"label": "peri", "sigma": 1.52586262256597e-05, "name": "w", "value": "18.55743021466724", "title": "argument of perihelion", "units": "deg"}, {"units": "deg", "value": "3.272187449425873", "title": "inclination", "sigma": 2.18459074223828e-06, "name": "i", "label": "i"}], "labels": ["e", "q", "tp", "node", "peri", "i"], "epoch": "2459880.5"}, "elements": [{"label": "e", "sigma": "4.9289E-9", "name": "e", "units": null, "value": ".5108551822396686", "title": "eccentricity"}, {"title": "semi-major axis", "value": "2.094674370826544", "units": "au", "sigma": "4.4348E-9", "name": "a", "label": "a"}, {"title": "perihelion distance", "value": "1.024599113385186", "units": "au", "name": "q", "sigma": "9.671E-9", "label": "q"}, {"value": "3.238173225459203", "title": "inclination; angle with respect to x-y ecliptic plane", "units": "deg", "sigma": "2.1931E-6", "name": "i", "label": "i"}, {"label": "node", "name": "om", "sigma": "1.3281E-5", "units": "deg", "value": "308.9068661196688", "title": "longitude of the ascending node"}, {"label": "peri", "units": "deg", "title": "argument of perihelion", "value": "18.87477369686832", "sigma": "1.5411E-5", "name": "w"}, {"label": "M", "name": "ma", "sigma": "1.7751E-6", "title": "mean anomaly", "value": "332.4304104200025", "units": "deg"}, {"sigma": "5.4996E-6", "name": "tp", "units": "TDB", "title": "time of perihelion passage", "value": "2461285.301006226623", "label": "tp"}, {"units": "d", "title": "sidereal orbital period", "value": "1107.320156254098", "sigma": "3.5166E-6", "name": "per", "label": "period"}, {"label": "n", "name": "n", "sigma": "1.0325E-9", "units": "deg/d", "value": ".3251092269627126", "title": "mean motion"}, {"label": "Q", "units": "au", "title": "aphelion distance", "value": "3.1647496282679", "name": "ad", "sigma": "6.7003E-9"}], "epoch": "2461200.5"}